STARLINK-11272 [DTC]    
1 60723U 24152D   26170.68668663  .00000315  00000+0  74489-5 0  9992
2 60723  53.1584 333.5373 0000596  80.2005 279.9080 15.69712958104854
STARLINK-11261 [DTC]    
1 60724U 24152E   26170.69159119  .00000865  00000+0  11990-4 0  9992
2 60724  53.1575 333.5693 0000470 133.3754 226.7303 15.69716034104859
STARLINK-11263 [DTC]    
1 60725U 24152F   26170.80911645  .00000931  00000+0  12534-4 0  9995
2 60725  53.1583 332.8767 0000639  95.5923 264.5167 15.69718328104875
STARLINK-11235 [DTC]    
1 60726U 24152G   26170.74054294  .00002158  00000+0  22669-4 0  9990
2 60726  53.1591 333.1594 0000798 102.9017 257.2090 15.69703100104999
STARLINK-11080 [DTC]    
1 60727U 24152H   26170.73564027  .00000585  00000+0  96793-5 0  9992
2 60727  53.1588 333.1230 0000823  58.0341 302.0757 15.69713964104991
STARLINK-11249 [DTC]    
1 60728U 24152J   26170.73076422 -.00003701  00000+0 -25743-4 0  9991
2 60728  53.1588 333.0958 0000729  53.2419 306.8666 15.69678718104860
STARLINK-11146 [DTC]    
1 60729U 24152K   26170.85317885  .00000794  00000+0  11415-4 0  9994
2 60729  53.1595 332.4174 0001113  78.7125 281.4017 15.69698730105018
STARLINK-11255 [DTC]    
1 60730U 24152L   26170.72092225 -.00003927  00000+0 -27549-4 0  9998
2 60730  53.1583 333.0242 0000588  51.8975 308.2096 15.69732570104879
STARLINK-11254 [DTC]    
1 60731U 24152M   26170.71601988  .00001096  00000+0  13902-4 0  9991
2 60731  53.1595 332.9973 0001110  51.6439 308.4678 15.69714846104871
STARLINK-11266 [DTC]    
1 60732U 24152N   26170.83844672  .00001210  00000+0  14836-4 0  9999
2 60732  53.1591 332.3219 0000927 106.8712 253.2408 15.69714738104886
STARLINK-32253          
1 60733U 24152P   26170.26574747 -.00000246  00000+0  38231-5 0  9995
2 60733  53.1593 156.5342 0000977  91.4162 268.6951 15.30187926102359
STARLINK-32179          
1 60734U 24152Q   26170.24263978  .00000689  00000+0  35386-4 0  9992
2 60734  53.1610 157.1141 0001466  99.5841 260.5325 15.30196602102268
STARLINK-32289          
1 60737U 24152T   26170.22997753  .00001117  00000+0  49849-4 0  9994
2 60737  53.1599 157.0313 0001090  92.6613 267.4512 15.30187366102396
STARLINK-32304          
1 60738U 24152U   26170.29211612  .00000805  00000+0  39290-4 0  9997
2 60738  53.1592 156.7091 0001165  69.1463 290.9662 15.30198054102409
STARLINK-32235          
1 60739U 24152V   26170.22364595  .00000175  00000+0  18033-4 0  9992
2 60739  53.1582 156.9911 0001463  88.9466 271.1702 15.30188119102345
STARLINK-32315          
1 60740U 24152W   26170.28579734 -.00000474  00000+0 -38789-5 0  9998
2 60740  53.1607 156.6684 0001309  82.9562 277.1588 15.30187937102276
STARLINK-11242 [DTC]    
1 60903U 24154A   26170.72460245  .00002682  00000+0  26997-4 0  9994
2 60903  53.1581 348.0123 0000929  78.8717 281.2405 15.69701218104548
STARLINK-11256 [DTC]    
1 60904U 24154B   26170.71969094  .00000198  00000+0  64851-5 0  9992
2 60904  53.1594 347.9777 0000701  77.2908 282.8188 15.69714275104541
STARLINK-11159 [DTC]    
1 60905U 24154C   26170.70998259  .00000642  00000+0  10148-4 0  9990
2 60905  53.1591 348.6462 0000764 119.0727 241.0367 15.69712747104538
STARLINK-11264 [DTC]    
1 60906U 24154D   26170.70507788  .00000622  00000+0  99853-5 0  9993
2 60906  53.1584 348.6131 0000856 118.9650 241.1454 15.69710384104532
STARLINK-11226 [DTC]    
1 60907U 24154E   26170.70017016  .00000228  00000+0  67437-5 0  9999
2 60907  53.1579 348.5821 0001202 145.5459 214.5637 15.69711030104537
STARLINK-11229 [DTC]    
1 60908U 24154F   26170.69527279 -.00001165  00000+0 -47617-5 0  9996
2 60908  53.1596 348.5519 0001174  64.5348 295.5791 15.69708520104536
STARLINK-11265 [DTC]    
1 60909U 24154G   26170.71488794  .00000564  00000+0  95090-5 0  9996
2 60909  53.1591 348.6791 0000623  79.5815 280.5273 15.69714156104539
STARLINK-11250 [DTC]    
1 60910U 24154H   26170.69036310 -.00000245  00000+0  28333-5 0  9991
2 60910  53.1599 348.5167 0001194  71.1094 289.0053 15.69710147104532
STARLINK-11190 [DTC]    
1 60911U 24154J   26170.68545865 -.00000228  00000+0  29744-5 0  9999
2 60911  53.1598 348.4846 0001062  57.5560 302.5561 15.69710146104528
STARLINK-11225 [DTC]    
1 60912U 24154K   26170.87155981 -.00000234  00000+0  29218-5 0  9990
2 60912  53.1589 347.5097 0000667  90.5895 269.5200 15.69708598104558
STARLINK-11273 [DTC]    
1 60913U 24154L   26170.86665124  .00000289  00000+0  72435-5 0  9993
2 60913  53.1602 347.4778 0001018  83.9024 276.2109 15.69714054104558
STARLINK-11271 [DTC]    
1 60915U 24154N   26170.72950264 -.00000010  00000+0  47712-5 0  9995
2 60915  53.1580 348.0403 0000685  83.7581 276.3515 15.69712804104533
STARLINK-32371          
1 60916U 24154P   26170.28868052 -.00003378  00000+0 -97208-4 0  9995
2 60916  53.1602 171.6832 0001421 103.7233 256.3927 15.31674325101896
STARLINK-32369          
1 60917U 24154Q   26170.28400645 -.00001812  00000+0 -46634-4 0  9994
2 60917  53.1597 171.6523 0001138  72.2329 287.8796 15.31694115101890
