OBJECT_NAME,OBJECT_ID,EPOCH,MEAN_MOTION,ECCENTRICITY,INCLINATION,RA_OF_ASC_NODE,ARG_OF_PERICENTER,MEAN_ANOMALY,EPHEMERIS_TYPE,CLASSIFICATION_TYPE,NORAD_CAT_ID,ELEMENT_SET_NO,REV_AT_EPOCH,BSTAR,MEAN_MOTION_DOT,MEAN_MOTION_DDOT
STARLINK-11272 [DTC],2024-152D,2026-06-19T16:28:49.724832,15.69712958,.0000596,53.1584,333.5373,80.2005,279.9080,0,U,60723,999,10485,.74489E-5,.315E-5,0
STARLINK-11261 [DTC],2024-152E,2026-06-19T16:35:53.478816,15.69716034,.000047,53.1575,333.5693,133.3754,226.7303,0,U,60724,999,10485,.1199E-4,.865E-5,0
STARLINK-11263 [DTC],2024-152F,2026-06-19T19:25:07.661280,15.69718328,.0000639,53.1583,332.8767,95.5923,264.5167,0,U,60725,999,10487,.12534E-4,.931E-5,0
STARLINK-11235 [DTC],2024-152G,2026-06-19T17:46:22.910016,15.69703100,.0000798,53.1591,333.1594,102.9017,257.2090,0,U,60726,999,10499,.22669E-4,.2158E-4,0
STARLINK-11080 [DTC],2024-152H,2026-06-19T17:39:19.319328,15.69713964,.0000823,53.1588,333.1230,58.0341,302.0757,0,U,60727,999,10499,.96793E-5,.585E-5,0
STARLINK-11249 [DTC],2024-152J,2026-06-19T17:32:18.028608,15.69678718,.0000729,53.1588,333.0958,53.2419,306.8666,0,U,60728,999,10486,-.25743E-4,-.3701E-4,0
STARLINK-11146 [DTC],2024-152K,2026-06-19T20:28:34.652640,15.69698730,.0001113,53.1595,332.4174,78.7125,281.4017,0,U,60729,999,10501,.11415E-4,.794E-5,0
STARLINK-11255 [DTC],2024-152L,2026-06-19T17:18:07.682400,15.69732570,.0000588,53.1583,333.0242,51.8975,308.2096,0,U,60730,999,10487,-.27549E-4,-.3927E-4,0
STARLINK-11254 [DTC],2024-152M,2026-06-19T17:11:04.117632,15.69714846,.000111,53.1595,332.9973,51.6439,308.4678,0,U,60731,999,10487,.13902E-4,.1096E-4,0
STARLINK-11266 [DTC],2024-152N,2026-06-19T20:07:21.796608,15.69714738,.0000927,53.1591,332.3219,106.8712,253.2408,0,U,60732,999,10488,.14836E-4,.121E-4,0
STARLINK-32253,2024-152P,2026-06-19T06:22:40.581408,15.30187926,.00009779,53.1593,156.5342,91.4162,268.6951,0,U,60733,999,10235,.3823134E-5,-.246E-5,0
STARLINK-32179,2024-152Q,2026-06-19T05:49:24.076992,15.30196602,.00014662,53.1610,157.1141,99.5841,260.5325,0,U,60734,999,10226,.35385595E-4,.689E-5,0
STARLINK-32289,2024-152T,2026-06-19T05:31:10.058592,15.30187366,.000109,53.1599,157.0313,92.6613,267.4512,0,U,60737,999,10239,.49848724E-4,.1117E-4,0
STARLINK-32304,2024-152U,2026-06-19T07:00:38.832768,15.30198054,.00011656,53.1592,156.7091,69.1463,290.9662,0,U,60738,999,10240,.39290227E-4,.805E-5,0
STARLINK-32235,2024-152V,2026-06-19T05:22:03.010080,15.30188119,.00014634,53.1582,156.9911,88.9466,271.1702,0,U,60739,999,10234,.1803345E-4,.175E-5,0
STARLINK-32315,2024-152W,2026-06-19T06:51:32.890176,15.30187937,.00013095,53.1607,156.6684,82.9562,277.1588,0,U,60740,999,10227,-.3878903E-5,-.474E-5,0
STARLINK-11242 [DTC],2024-154A,2026-06-19T17:23:25.651680,15.69701218,.0000929,53.1581,348.0123,78.8717,281.2405,0,U,60903,999,10454,.26997E-4,.2682E-4,0
STARLINK-11256 [DTC],2024-154B,2026-06-19T17:16:21.297216,15.69714275,.0000701,53.1594,347.9777,77.2908,282.8188,0,U,60904,999,10454,.64851E-5,.198E-5,0
STARLINK-11159 [DTC],2024-154C,2026-06-19T17:02:22.495776,15.69712747,.0000764,53.1591,348.6462,119.0727,241.0367,0,U,60905,999,10453,.10148E-4,.642E-5,0
STARLINK-11264 [DTC],2024-154D,2026-06-19T16:55:18.728832,15.69710384,.0000856,53.1584,348.6131,118.9650,241.1454,0,U,60906,999,10453,.99853E-5,.622E-5,0
STARLINK-11226 [DTC],2024-154E,2026-06-19T16:48:14.701824,15.69711030,.0001202,53.1579,348.5821,145.5459,214.5637,0,U,60907,999,10453,.67437E-5,.228E-5,0
STARLINK-11229 [DTC],2024-154F,2026-06-19T16:41:11.569056,15.69708520,.0001174,53.1596,348.5519,64.5348,295.5791,0,U,60908,999,10453,-.47617E-5,-.1165E-4,0
STARLINK-11265 [DTC],2024-154G,2026-06-19T17:09:26.318016,15.69714156,.0000623,53.1591,348.6791,79.5815,280.5273,0,U,60909,999,10453,.9509E-5,.564E-5,0
STARLINK-11250 [DTC],2024-154H,2026-06-19T16:34:07.371840,15.69710147,.0001194,53.1599,348.5167,71.1094,289.0053,0,U,60910,999,10453,.28333E-5,-.245E-5,0
STARLINK-11190 [DTC],2024-154J,2026-06-19T16:27:03.627360,15.69710146,.0001062,53.1598,348.4846,57.5560,302.5561,0,U,60911,999,10452,.29744E-5,-.228E-5,0
STARLINK-11225 [DTC],2024-154K,2026-06-19T20:55:02.767584,15.69708598,.0000667,53.1589,347.5097,90.5895,269.5200,0,U,60912,999,10455,.29218E-5,-.234E-5,0
STARLINK-11273 [DTC],2024-154L,2026-06-19T20:47:58.667136,15.69714054,.0001018,53.1602,347.4778,83.9024,276.2109,0,U,60913,999,10455,.72435E-5,.289E-5,0
STARLINK-11271 [DTC],2024-154N,2026-06-19T17:30:29.028096,15.69712804,.0000685,53.1580,348.0403,83.7581,276.3515,0,U,60915,999,10453,.47712E-5,-.1E-6,0
STARLINK-32371,2024-154P,2026-06-19T06:55:41.996928,15.31674325,.0001421,53.1602,171.6832,103.7233,256.3927,0,U,60916,999,10189,-.97207976E-4,-.3378E-4,0
STARLINK-32369,2024-154Q,2026-06-19T06:48:58.157280,15.31694115,.00011389,53.1597,171.6523,72.2329,287.8796,0,U,60917,999,10189,-.46634177E-4,-.1812E-4,0
